HAWK-2B                 
1 47508U 21006CZ  26068.67629241  .00009474  00000+0  29651-3 0  9991
2 47508  97.2334 114.1140 0007102 185.9063 174.2098 15.33301353284246
STARLINK-35862          
1 66628U 25271M   26068.47758524  .00017463  00000+0  60039-3 0  9990
2 66628  53.1564 140.9573 0000793  90.6009 269.5083 15.30197618 17536
